[{"OBJECT_NAME":"STARLINK-34093","OBJECT_ID":"2025-101X","EPOCH":"2026-03-09T03:24:14.802336","MEAN_MOTION":15.27578207,"ECCENTRICITY":0.00019812,"INCLINATION":43.0048,"RA_OF_ASC_NODE":0.862,"ARG_OF_PERICENTER":255.4344,"MEAN_ANOMALY":104.6288,"EPHEMERIS_TYPE":0,"CLASSIFICATION_TYPE":"U","NORAD_CAT_ID":64015,"ELEMENT_SET_NO":999,"REV_AT_EPOCH":4697,"BSTAR":0.0014075952,"MEAN_MOTION_DOT":0.00038674,"MEAN_MOTION_DDOT":0},{"OBJECT_NAME":"CZ-2C DEB","OBJECT_ID":"2018-056F","EPOCH":"2026-03-09T10:57:26.102304","MEAN_MOTION":15.27739248,"ECCENTRICITY":0.00119172,"INCLINATION":98.1188,"RA_OF_ASC_NODE":250.032,"ARG_OF_PERICENTER":4.6998,"MEAN_ANOMALY":355.4349,"EPHEMERIS_TYPE":0,"CLASSIFICATION_TYPE":"U","NORAD_CAT_ID":43534,"ELEMENT_SET_NO":999,"REV_AT_EPOCH":41855,"BSTAR":0.00085537155,"MEAN_MOTION_DOT":0.00023193,"MEAN_MOTION_DDOT":0}]
